[
    {
        "OBJECT_NAME": "COSMOS 2221",
        "OBJECT_ID": "1992-080A",
        "EPOCH": "2026-05-30T13:17:28.993056",
        "MEAN_MOTION": 14.96484223,
        "ECCENTRICITY": 0.0012531,
        "INCLINATION": 82.5041,
        "RA_OF_ASC_NODE": 200.6577,
        "ARG_OF_PERICENTER": 277.9195,
        "MEAN_ANOMALY": 82.0605,
        "EPHEMERIS_TYPE": 0,
        "CLASSIFICATION_TYPE": "U",
        "NORAD_CAT_ID": 22236,
        "ELEMENT_SET_NO": 999,
        "REV_AT_EPOCH": 79303,
        "BSTAR": 0.00015623,
        "MEAN_MOTION_DOT": 1.801e-05,
        "MEAN_MOTION_DDOT": 0
    },
    {
        "OBJECT_NAME": "SL-16 R/B",
        "OBJECT_ID": "1992-093B",
        "EPOCH": "2026-05-30T13:48:08.567424",
        "MEAN_MOTION": 14.15462686,
        "ECCENTRICITY": 0.0004921,
        "INCLINATION": 71.0206,
        "RA_OF_ASC_NODE": 192.3643,
        "ARG_OF_PERICENTER": 208.7986,
        "MEAN_ANOMALY": 151.2866,
        "EPHEMERIS_TYPE": 0,
        "CLASSIFICATION_TYPE": "U",
        "NORAD_CAT_ID": 22285,
        "ELEMENT_SET_NO": 999,
        "REV_AT_EPOCH": 72474,
        "BSTAR": 0.00017487,
        "MEAN_MOTION_DOT": 2.94e-06,
        "MEAN_MOTION_DDOT": 0
    },
    {
        "OBJECT_NAME": "COSMOS 2228",
        "OBJECT_ID": "1992-094A",
        "EPOCH": "2026-05-30T18:46:07.861152",
        "MEAN_MOTION": 14.9751824,
        "ECCENTRICITY": 0.0018613,
        "INCLINATION": 82.5164,
        "RA_OF_ASC_NODE": 158.714,
        "ARG_OF_PERICENTER": 30.8514,
        "MEAN_ANOMALY": 329.3798,
        "EPHEMERIS_TYPE": 0,
        "CLASSIFICATION_TYPE": "U",
        "NORAD_CAT_ID": 22286,
        "ELEMENT_SET_NO": 999,
        "REV_AT_EPOCH": 78834,
        "BSTAR": 0.00021192,
        "MEAN_MOTION_DOT": 2.505e-05,
        "MEAN_MOTION_DDOT": 0
    },
    {
        "OBJECT_NAME": "SL-16 R/B",
        "OBJECT_ID": "1993-016B",
        "EPOCH": "2026-05-30T20:03:48.159648",
        "MEAN_MOTION": 14.15309618,
        "ECCENTRICITY": 0.0011259,
        "INCLINATION": 71.0088,
        "RA_OF_ASC_NODE": 42.6515,
        "ARG_OF_PERICENTER": 209.4876,
        "MEAN_ANOMALY": 150.5613,
        "EPHEMERIS_TYPE": 0,
        "CLASSIFICATION_TYPE": "U",
        "NORAD_CAT_ID": 22566,
        "ELEMENT_SET_NO": 999,
        "REV_AT_EPOCH": 71379,
        "BSTAR": -9.6451e-05,
        "MEAN_MOTION_DOT": -2.36e-06,
        "MEAN_MOTION_DDOT": 0
    },
    {
        "OBJECT_NAME": "COSMOS 2242",
        "OBJECT_ID": "1993-024A",
        "EPOCH": "2026-05-30T14:23:52.315584",
        "MEAN_MOTION": 14.96846836,
        "ECCENTRICITY": 0.0017053,
        "INCLINATION": 82.5187,
        "RA_OF_ASC_NODE": 188.3682,
        "ARG_OF_PERICENTER": 35.1919,
        "MEAN_ANOMALY": 325.0426,
        "EPHEMERIS_TYPE": 0,
        "CLASSIFICATION_TYPE": "U",
        "NORAD_CAT_ID": 22626,
        "ELEMENT_SET_NO": 999,
        "REV_AT_EPOCH": 79264,
        "BSTAR": 0.00016946,
        "MEAN_MOTION_DOT": 1.973e-05,
        "MEAN_MOTION_DDOT": 0
    },
    {
        "OBJECT_NAME": "SL-16 R/B",
        "OBJECT_ID": "1993-059B",
        "EPOCH": "2026-05-30T13:29:57.708672",
        "MEAN_MOTION": 14.17244167,
        "ECCENTRICITY": 0.0014792,
        "INCLINATION": 70.9895,
        "RA_OF_ASC_NODE": 198.4714,
        "ARG_OF_PERICENTER": 84.7531,
        "MEAN_ANOMALY": 275.5281,
        "EPHEMERIS_TYPE": 0,
        "CLASSIFICATION_TYPE": "U",
        "NORAD_CAT_ID": 22803,
        "ELEMENT_SET_NO": 999,
        "REV_AT_EPOCH": 69113,
        "BSTAR": -6.5832e-05,
        "MEAN_MOTION_DOT": -1.81e-06,
        "MEAN_MOTION_DDOT": 0
    },
    {
        "OBJECT_NAME": "ARIANE 40 R/B",
        "OBJECT_ID": "1993-061H",
        "EPOCH": "2026-05-30T19:38:07.207008",
        "MEAN_MOTION": 14.32899535,
        "ECCENTRICITY": 0.0011481,
        "INCLINATION": 98.4822,
        "RA_OF_ASC_NODE": 218.0351,
        "ARG_OF_PERICENTER": 46.3518,
        "MEAN_ANOMALY": 313.8616,
        "EPHEMERIS_TYPE": 0,
        "CLASSIFICATION_TYPE": "U",
        "NORAD_CAT_ID": 22830,
        "ELEMENT_SET_NO": 999,
        "REV_AT_EPOCH": 70586,
        "BSTAR": 0.00010631,
        "MEAN_MOTION_DOT": 2.48e-06,
        "MEAN_MOTION_DDOT": 0
    },
    {
        "OBJECT_NAME": "COSMOS 2278",
        "OBJECT_ID": "1994-023A",
        "EPOCH": "2026-05-30T20:22:39.804384",
        "MEAN_MOTION": 14.14386358,
        "ECCENTRICITY": 0.0010707,
        "INCLINATION": 71.0538,
        "RA_OF_ASC_NODE": 3.2029,
        "ARG_OF_PERICENTER": 263.2831,
        "MEAN_ANOMALY": 96.7073,
        "EPHEMERIS_TYPE": 0,
        "CLASSIFICATION_TYPE": "U",
        "NORAD_CAT_ID": 23087,
        "ELEMENT_SET_NO": 999,
        "REV_AT_EPOCH": 65642,
        "BSTAR": 0.00016129,
        "MEAN_MOTION_DOT": 2.62e-06,
        "MEAN_MOTION_DDOT": 0
    },
    {
        "OBJECT_NAME": "SL-16 R/B",
        "OBJECT_ID": "1994-023B",
        "EPOCH": "2026-05-30T17:12:43.663392",
        "MEAN_MOTION": 14.15018744,
        "ECCENTRICITY": 0.0003815,
        "INCLINATION": 71,
        "RA_OF_ASC_NODE": 258.6194,
        "ARG_OF_PERICENTER": 209.167,
        "MEAN_ANOMALY": 150.924,
        "EPHEMERIS_TYPE": 0,
        "CLASSIFICATION_TYPE": "U",
        "NORAD_CAT_ID": 23088,
        "ELEMENT_SET_NO": 999,
        "REV_AT_EPOCH": 65769,
        "BSTAR": -7.4713e-05,
        "MEAN_MOTION_DOT": -1.92e-06,
        "MEAN_MOTION_DDOT": 0
    },
    {
        "OBJECT_NAME": "SL-16 R/B",
        "OBJECT_ID": "1994-074B",
        "EPOCH": "2026-05-30T13:59:31.543008",
        "MEAN_MOTION": 14.79485539,
        "ECCENTRICITY": 0.0005601,
        "INCLINATION": 97.6998,
        "RA_OF_ASC_NODE": 178.0368,
        "ARG_OF_PERICENTER": 325.6118,
        "MEAN_ANOMALY": 202.0534,
        "EPHEMERIS_TYPE": 0,
        "CLASSIFICATION_TYPE": "U",
        "NORAD_CAT_ID": 23343,
        "ELEMENT_SET_NO": 999,
        "REV_AT_EPOCH": 69935,
        "BSTAR": 7.9424e-05,
        "MEAN_MOTION_DOT": 5.44e-06,
        "MEAN_MOTION_DDOT": 0
    },
    {
        "OBJECT_NAME": "SL-16 R/B",
        "OBJECT_ID": "1994-077B",
        "EPOCH": "2026-05-30T12:36:38.956032",
        "MEAN_MOTION": 14.15576502,
        "ECCENTRICITY": 0.0002135,
        "INCLINATION": 70.9817,
        "RA_OF_ASC_NODE": 180.3201,
        "ARG_OF_PERICENTER": 341.2385,
        "MEAN_ANOMALY": 18.8659,
        "EPHEMERIS_TYPE": 0,
        "CLASSIFICATION_TYPE": "U",
        "NORAD_CAT_ID": 23405,
        "ELEMENT_SET_NO": 999,
        "REV_AT_EPOCH": 62781,
        "BSTAR": 1.1172e-05,
        "MEAN_MOTION_DOT": -2.6e-07,
        "MEAN_MOTION_DDOT": 0
    },
    {
        "OBJECT_NAME": "ARIANE 40+ R/B",
        "OBJECT_ID": "1995-021B",
        "EPOCH": "2026-05-30T19:55:48.655200",
        "MEAN_MOTION": 14.39822701,
        "ECCENTRICITY": 0.0005575,
        "INCLINATION": 98.4414,
        "RA_OF_ASC_NODE": 221.1554,
        "ARG_OF_PERICENTER": 251.8309,
        "MEAN_ANOMALY": 222.7638,
        "EPHEMERIS_TYPE": 0,
        "CLASSIFICATION_TYPE": "U",
        "NORAD_CAT_ID": 23561,
        "ELEMENT_SET_NO": 999,
        "REV_AT_EPOCH": 63106,
        "BSTAR": 0.00011911,
        "MEAN_MOTION_DOT": 3.3e-06,
        "MEAN_MOTION_DDOT": 0
    },
    {
        "OBJECT_NAME": "SL-16 R/B",
        "OBJECT_ID": "1995-058B",
        "EPOCH": "2026-05-30T19:39:26.106624",
        "MEAN_MOTION": 14.15507771,
        "ECCENTRICITY": 0.0013051,
        "INCLINATION": 71.0227,
        "RA_OF_ASC_NODE": 7.8253,
        "ARG_OF_PERICENTER": 344.0345,
        "MEAN_ANOMALY": 16.0365,
        "EPHEMERIS_TYPE": 0,
        "CLASSIFICATION_TYPE": "U",
        "NORAD_CAT_ID": 23705,
        "ELEMENT_SET_NO": 999,
        "REV_AT_EPOCH": 57947,
        "BSTAR": -9.2541e-05,
        "MEAN_MOTION_DOT": -2.29e-06,
        "MEAN_MOTION_DDOT": 0
    },
    {
        "OBJECT_NAME": "SL-16 R/B",
        "OBJECT_ID": "1996-051B",
        "EPOCH": "2026-05-30T19:43:54.466752",
        "MEAN_MOTION": 14.12439944,
        "ECCENTRICITY": 0.0014038,
        "INCLINATION": 70.7635,
        "RA_OF_ASC_NODE": 1.4015,
        "ARG_OF_PERICENTER": 3.9346,
        "MEAN_ANOMALY": 356.1881,
        "EPHEMERIS_TYPE": 0,
        "CLASSIFICATION_TYPE": "U",
        "NORAD_CAT_ID": 24298,
        "ELEMENT_SET_NO": 999,
        "REV_AT_EPOCH": 53324,
        "BSTAR": 0.00011935,
        "MEAN_MOTION_DOT": 1.71e-06,
        "MEAN_MOTION_DDOT": 0
    },
    {
        "OBJECT_NAME": "ORBVIEW 2 (SEASTAR)",
        "OBJECT_ID": "1997-037A",
        "EPOCH": "2026-05-30T12:36:35.691840",
        "MEAN_MOTION": 14.35543165,
        "ECCENTRICITY": 0.0002533,
        "INCLINATION": 98.8672,
        "RA_OF_ASC_NODE": 317.0566,
        "ARG_OF_PERICENTER": 153.4094,
        "MEAN_ANOMALY": 206.722,
        "EPHEMERIS_TYPE": 0,
        "CLASSIFICATION_TYPE": "U",
        "NORAD_CAT_ID": 24883,
        "ELEMENT_SET_NO": 999,
        "REV_AT_EPOCH": 52021,
        "BSTAR": 0.00012429,
        "MEAN_MOTION_DOT": 3.11e-06,
        "MEAN_MOTION_DDOT": 0
    },
    {
        "OBJECT_NAME": "SL-16 R/B",
        "OBJECT_ID": "1998-043G",
        "EPOCH": "2026-05-30T19:44:05.586432",
        "MEAN_MOTION": 14.26065374,
        "ECCENTRICITY": 0.0010608,
        "INCLINATION": 98.8357,
        "RA_OF_ASC_NODE": 104.8332,
        "ARG_OF_PERICENTER": 132.0935,
        "MEAN_ANOMALY": 228.1148,
        "EPHEMERIS_TYPE": 0,
        "CLASSIFICATION_TYPE": "U",
        "NORAD_CAT_ID": 25400,
        "ELEMENT_SET_NO": 999,
        "REV_AT_EPOCH": 45069,
        "BSTAR": 4.1709e-05,
        "MEAN_MOTION_DOT": 5.4e-07,
        "MEAN_MOTION_DDOT": 0
    }
]